VNREDSAT 1              
1 39160U 13021B   24052.47401648  .00001054  00000+0  21331-3 0  9995
2 39160  98.0109 122.7357 0001061  88.5073 271.6251 14.63248626576389
ARIRANG-5 (KOMPSAT-5)   
1 39227U 13042A   24052.51448900  .00002920  00000+0  21284-3 0  9999
2 39227  97.6192 240.0411 0002427  99.5979 260.5521 15.04515528576616
SKYSAT-A                
1 39418U 13066C   24052.16577792  .00003565  00000+0  26096-3 0  9992
2 39418  97.5045 115.9643 0025247 347.8705  12.1910 15.03949344560759
DUBAISAT-2              
1 39419U 13066D   24052.46666450  .00003808  00000+0  31796-3 0  9999
2 39419  97.4079  63.1264 0013436  15.8790 344.2852 14.99041733559034
GPM-CORE                
1 39574U 14009C   24052.19137126  .00010426  00000+0  22874-3 0  9993
2 39574  64.9868 264.6475 0008732 275.9923  84.0222 15.44468948567001
SENTINEL-1A             
1 39634U 14016A   24052.51058109  .00000358  00000+0  85671-4 0  9995
2 39634  98.1826  61.2788 0001338  90.4995 269.6358 14.59197645526579
KAZEOSAT 1              
1 39731U 14024A   24052.50409384  .00000370  00000+0  12576-3 0  9993
2 39731  98.4044 130.8250 0001275 105.6638 254.4692 14.42050933516585
ALOS-2                  
1 39766U 14029A   24052.51117452  .00003026  00000+0  41189-3 0  9992
2 39766  97.9210 150.8358 0001557 101.2990 258.8396 14.79476029526420
KAZEOSAT 2              
1 40010U 14033A   24052.47802129  .00000999  00000+0  13121-3 0  9999
2 40010  97.6390 282.9583 0010971 226.5901 133.4401 14.82289203523387
HODOYOSHI-4             
1 40011U 14033B   24052.51613340  .00001924  00000+0  23781-3 0  9992
2 40011  97.5964 267.9210 0024438 221.6945 138.2408 14.83685361523062
DEIMOS-2                
1 40013U 14033D   24052.48241892  .00002427  00000+0  26985-3 0  9997
2 40013  97.6977 302.6304 0000672  85.4118 274.7176 14.88049052524405
HODOYOSHI-3             
1 40015U 14033F   24052.13282269  .00002581  00000+0  33984-3 0  9992
2 40015  97.5967 244.0668 0034327 258.2623 101.4738 14.80569734522079
SPOT 7                  
1 40053U 14034A   24052.49148890  .00000832  00000+0  18643-3 0  9997
2 40053  98.1725 121.2057 0001211  78.3876 281.7459 14.59120539513596
SKYSAT-B                
1 40072U 14037D   24052.17741147  .00001712  00000+0  21507-3 0  9991
2 40072  98.3404 318.8188 0007029 132.0502 228.1309 14.83515955520256
WORLDVIEW-3 (WV-3)      
1 40115U 14048A   24051.90807868  .00001767  00000+0  21296-3 0  9999
2 40115  97.8385 126.8837 0003871 127.1272 233.0297 14.85083005516168
GAOFEN-2                
1 40118U 14049A   24052.44006749  .00001715  00000+0  22914-3 0  9993
2 40118  97.6794 108.1289 0006389 110.6915 249.4983 14.80744612513955
YAOGAN 21               
1 40143U 14053A   24052.46589106  .00010589  00000+0  44943-3 0  9996
2 40143  97.2704 114.2748 0008756 213.0750 146.9941 15.23233056526045
YAOGAN 22               
1 40275U 14063A   24052.18819669 -.00000051  00000+0 -12750-4 0  9999
2 40275 100.6408 183.4141 0005824 300.2031  59.8503 13.15474066448440
ASNARO                  
1 40298U 14070A   24052.46437942  .00014197  00000+0  66623-3 0  9994
2 40298  97.4194 136.0935 0003926 236.7015 123.3845 15.19749166515444
HODOYOSHI-1             
1 40299U 14070B   24052.46210545  .00020503  00000+0  48201-3 0  9993
2 40299  97.1585 114.4321 0009997  99.6541 260.5837 15.41967544517106
YAOGAN 23               
1 40305U 14071A   24052.50697528  .00028611  00000+0  68982-3 0  9993
2 40305  97.6822  30.6105 0003720  98.6200 261.5468 15.41191498514375
YAOGAN 24               
1 40310U 14072A   24052.47324571  .00001599  00000+0  23776-3 0  9999
2 40310  98.0376 177.4987 0014849  98.4974 261.7919 14.76280742498820
CBERS 4                 
1 40336U 14079A   24052.50598521  .00000235  00000+0  96635-4 0  9997
2 40336  98.4137 123.8179 0000826  57.4861 302.6405 14.35496871482505
RESURS P2               
1 40360U 14087A   24052.51546762  .00022395  00000+0  36545-3 0  9998
2 40360  97.1590 138.9364 0007269  20.7081 339.4466 15.52568560512929
YAOGAN-26               
1 40362U 14088A   24052.46122689  .00013238  00000+0  55921-3 0  9998
2 40362  97.0695  79.9213 0000837 104.6146 255.5185 15.23363298509528
SMAP                    
1 40376U 15003A   24052.51501406  .00001001  00000+0  20306-3 0  9999
2 40376  98.1303  60.5459 0001171  92.0368 268.0968 14.63329050483796
KOMPSAT-3A              
1 40536U 15014A   24052.43469431  .00009444  00000+0  44959-3 0  9990
2 40536  97.6009   1.5293 0003286  19.8672 340.2690 15.19367288491966
SENTINEL-2A             
1 40697U 15028A   24052.45923636  .00000234  00000+0  10576-3 0  9993
2 40697  98.5684 128.3887 0001128 104.8606 255.2702 14.30819070452650
GAOFEN-8                
1 40701U 15030A   24052.48181538  .00016599  00000+0  67932-3 0  9991
2 40701  97.6372 204.9252 0005401 359.0993   1.0233 15.24388000481878
CARBONITE 1 (CBNT-1)    
1 40718U 15032D   24052.49835197  .00002521  00000+0  35711-3 0  9999
2 40718  97.6680 258.2859 0015589 179.1759 180.9481 14.77806743464028
YAOGAN-27               
1 40878U 15040A   24052.44346592  .00000025  00000+0  17588-3 0  9995
2 40878 100.0852  66.7101 0008450  13.2135 346.9199 13.16009717407791
GAOFEN-9 01             
1 40894U 15047A   24052.43253087  .00001661  00000+0  22851-3 0  9991
2 40894  97.7476 111.4298 0030104  30.8925 329.4051 14.79266979454836
YAOGAN-28               
1 41026U 15064A   24052.48744064  .00011049  00000+0  46671-3 0  9990
2 41026  97.1917 207.4606 0004637 269.5685  90.5021 15.23404024461716
YAOGAN-29               
1 41038U 15069A   24052.47893573  .00000866  00000+0  11735-3 0  9995
2 41038  98.0612  66.1867 0000614 234.6050 125.5105 14.81520643445184
KENT RIDGE 1            
1 41167U 15077B   24052.31767352  .00004991  00000+0  22990-3 0  9993
2 41167  14.9818  43.6068 0010343 245.5698 114.3544 15.13950276452270
TELEOS-1                
1 41169U 15077D   24052.10760436  .00019072  00000+0  68825-3 0  9991
2 41169  14.9805 330.6363 0007127  14.1112 345.9409 15.25908641452917
GAOFEN-4                
1 41194U 15083A   24051.91967676 -.00000344  00000+0  00000+0 0  9999
2 41194   0.0867 282.5853 0007064 272.3860  32.1054  1.00266887 30039
JASON-3                 
1 41240U 16002A   24052.15305593 -.00000034  00000+0  11670-3 0  9999
2 41240  66.0404  94.4195 0008160 273.7743  86.2339 12.80931070378654
SENTINEL-3A             
1 41335U 16011A   24052.46832315  .00000212  00000+0  10553-3 0  9991
2 41335  98.6211 120.9326 0001306  96.7640 263.3689 14.26738871417321
ZIYUAN 3-2 (ZY 3-2)     
1 41556U 16033A   24052.47023399  .00009664  00000+0  43443-3 0  9999
2 41556  97.4673 128.9171 0001502 171.5610 188.5651 15.21337808429251
CARTOSAT-2C             
1 41599U 16040A   24052.44467902  .00007139  00000+0  34103-3 0  9991
2 41599  97.4028 113.3611 0012253 201.5263 158.5458 15.19268387425151
SKYSAT-C1               
1 41601U 16040C   24052.16598968  .00011759  00000+0  40363-3 0  9999
2 41601  97.0802 118.2138 0001419 121.0038 239.1343 15.30284132428259
LAPAN-A3                
1 41603U 16040E   24052.48811051  .00003384  00000+0  14141-3 0  9997
2 41603  97.1507  71.5321 0013171 147.8195 212.3850 15.24185773425445
BIROS                   
1 41604U 16040F   24051.65965985  .00012901  00000+0  38236-3 0  9998
2 41604  97.1380  83.6934 0011293 106.9808 253.2674 15.34907635426134
GAOFEN-3                
1 41727U 16049A   24052.46316085  .00000173  00000+0  65617-4 0  9996
2 41727  98.4079  61.8375 0000734 100.5926 259.5346 14.42263543396597
SKYSAT-C4               
1 41771U 16058B   24051.71795711  .00013303  00000+0  40974-3 0  9996
2 41771  97.0301 104.9706 0001024 145.5297 214.6013 15.33739179415206
SKYSAT-C5               
1 41772U 16058C   24052.14340141  .00016133  00000+0  42159-3 0  9999
2 41772  97.1777 110.1538 0000827 261.4080  98.7072 15.38847675413700
SKYSAT-C2               
1 41773U 16058D   24051.65571141  .00011667  00000+0  39009-3 0  9998
2 41773  97.0321 104.3585 0004352  63.9883 296.1807 15.31128339415147
SKYSAT-C3               
1 41774U 16058E   24051.69459376  .00019826  00000+0  47028-3 0  9993
2 41774  97.0311 110.1906 0006517 125.7240 234.4614 15.41732543415542
ALSAT 1B                
1 41785U 16059C   24052.45868544  .00000669  00000+0  11731-3 0  9999
2 41785  97.8333  85.4477 0010900  67.9888 292.2476 14.70774544396048
PATHFINDER 1            
1 41787U 16059E   24052.03588170  .00001153  00000+0  22151-3 0  9996
2 41787  97.8432  79.5923 0030258  25.3741 334.8941 14.65151516395540
SCATSAT 1               
1 41790U 16059H   24052.35421526  .00000441  00000+0  12144-3 0  9996
2 41790  98.2382  96.8208 0005843 105.6215 254.5625 14.51459102392104
GOKTURK 1A              
1 41875U 16073A   24052.47279615  .00000792  00000+0  16472-3 0  9996
2 41875  98.1644 308.1975 0001523  85.1074 275.0301 14.62705602385049
RESOURCESAT-2A          
1 41877U 16074A   24052.45806559  .00000243  00000+0  13070-3 0  9992
2 41877  98.6562 128.2359 0001188  49.7267 310.4014 14.21657375374006
CARTOSAT-2D             
1 41948U 17008A   24051.95144363  .00006057  00000+0  29109-3 0  9990
2 41948  97.4435 113.0814 0006175 342.9042  17.1984 15.19175930388944
SENTINEL-2B             
1 42063U 17013A   24052.49423076  .00000224  00000+0  10206-3 0  9994
2 42063  98.5658 128.4267 0001144  96.3101 263.8213 14.30821035363574
ZHUHAI-1 02 (CAS-4B)    
1 42759U 17034B   24052.46437377  .00015577  00000+0  64273-3 0  9995
2 42759  43.0139 163.9175 0012762 292.2967  67.6530 15.23765511369579
NUSAT-3 (MILANESAT)     
1 42760U 17034C   24052.49860783  .00017833  00000+0  68574-3 0  9996
2 42760  43.0087 151.8544 0014451 308.1123  51.8425 15.26023294369731
ZHUHAI-1 01 (CAS-4A)    
1 42761U 17034D   24052.47476766  .00014788  00000+0  60923-3 0  9995
2 42761  43.0116 162.2979 0012644 294.4116  65.5415 15.23852465369585
CARTOSAT-2E             
1 42767U 17036C   24052.42868301  .00006658  00000+0  31874-3 0  9998
2 42767  97.4558 113.4650 0007137  37.1376 323.0351 15.19264031369581
